[
    {
        "Altitude(m)": 604969.0889900251,
        "Argument of Periapsis(deg)": 0.0,
        "Eccentricity": 0.0,
        "Inclination(deg)": 60.0,
        "Latitude(deg)": -0.09253847609033905,
        "Longitude(deg)": 114.97752756896816,
        "Mean Anomaly(deg)": 0.0,
        "RAAN(deg)": 215.0,
        "Satellite Name": "Test1 946",
        "Satellite Number": 946,
        "Semi-Major Axis(m)": 6980739.136638005,
        "Time(s)": 0
    },
    {
        "Altitude(m)": 604900.0293397283,
        "Argument of Periapsis(deg)": 0.00010418945913296404,
        "Eccentricity": 0.0,
        "Inclination(deg)": 60.0,
        "Latitude(deg)": 0.4478873122787386,
        "Longitude(deg)": 115.24565081262023,
        "Mean Anomaly(deg)": 0.6201061454618275,
        "RAAN(deg)": 214.99957995086024,
        "Satellite Name": "Test1 946",
        "Satellite Number": 946,
        "Semi-Major Axis(m)": 6980739.136638005,
        "Time(s)": 10
    }
]